#dV2024  2 19 10  0  0.00000000    1682       CTS   FIT  GFZ
## 2302 122400.00000000    30.00000000 60359 0.4166666666667
+    1   L65  0  0  0  0  0  0  0  0  0  0  0  0  0  0  0  0
+          0  0  0  0  0  0  0  0  0  0  0  0  0  0  0  0  0
+          0  0  0  0  0  0  0  0  0  0  0  0  0  0  0  0  0
+          0  0  0  0  0  0  0  0  0  0  0  0  0  0  0  0  0
+          0  0  0  0  0  0  0  0  0  0  0  0  0  0  0  0  0
++         0  0  0  0  0  0  0  0  0  0  0  0  0  0  0  0  0
++         0  0  0  0  0  0  0  0  0  0  0  0  0  0  0  0  0
++         0  0  0  0  0  0  0  0  0  0  0  0  0  0  0  0  0
++         0  0  0  0  0  0  0  0  0  0  0  0  0  0  0  0  0
++         0  0  0  0  0  0  0  0  0  0  0  0  0  0  0  0  0
%c L  cc GPS ccc cccc cccc cccc cccc ccccc ccccc ccccc ccccc
%c cc cc ccc ccc cccc cccc cccc cccc ccccc ccccc ccccc ccccc
%f  0.0000000  0.000000000  0.00000000000  0.000000000000000
%f  0.0000000  0.000000000  0.00000000000  0.000000000000000
%i    0    0    0    0      0      0      0      0         0
%i    0    0    0    0      0      0      0      0         0
/* CCCCCCCCCCCCCCCCCCCCCCCCCCCCCCCCCCCCCCCCCCCCCCCCCCCCCCCCCCCCCCCCCCCCCCCCCCCCC
/* C                             GFZ RSO-ORBIT                                 C
/* C DOI: https://doi.org/10.5880/GFZ_ORBIT/RSO/L65_G_v03                      C
/* C                                                                           C
/* C DORIS        RMS: not applicable                                          C
/* C GNSS-E Code  RMS: not applicable                                          C
/* C GNSS-E Phase RMS: not applicable                                          C
/* C GNSS-G Code  RMS:   49.604 [cm]   Obs.acc.:     13960 Obs.eli.:      1070 C
/* C GNSS-G Phase RMS:    0.432 [cm]   Obs.acc.:     13960 Obs.eli.:      1070 C
/* C SLR          RMS:    1.933 [cm]   Obs.acc.:        76 Obs.eli.:         0 C
/* C                                                                           C
/* CCCCCCCCCCCCCCCCCCCCCCCCCCCCCCCCCCCCCCCCCCCCCCCCCCCCCCCCCCCCCCCCCCCCCCCCCCCCC
*  2024  2 19 18  4 30.00000000
PL65   1700.953496   6516.597720  -1282.706679    114.099359
VL65   -152.052694 -14570.042018 -74964.710234 999999.999999
*  2024  2 19 18  5  0.00000000
PL65   1699.453009   6469.283227  -1506.842382    114.594695
VL65   -849.900298 -16969.419154 -74445.201366 999999.999999
*  2024  2 19 18  5 30.00000000
PL65   1695.844764   6414.803769  -1729.294874    115.090218
VL65  -1557.077170 -19346.233812 -73842.682247 999999.999999
*  2024  2 19 18  6  0.00000000
PL65   1690.102113   6353.231085  -1949.816190    115.585947
VL65  -2272.686291 -21697.789317 -73157.880063 999999.999999
*  2024  2 19 18  6 30.00000000
PL65   1682.201131   6284.644954  -2168.160690    116.081652
VL65  -2995.810598 -24021.425295 -72391.616446 999999.999999
*  2024  2 19 18  7  0.00000000
PL65   1672.120670   6209.133075  -2384.085339    116.577230
VL65  -3725.514598 -26314.520982 -71544.806226 999999.999999
*  2024  2 19 18  7 30.00000000
PL65   1659.842415   6126.790947  -2597.349984    117.072597
VL65  -4460.845830 -28574.498550 -70618.456006 999999.999999
*  2024  2 19 18  8  0.00000000
PL65   1645.350935   6037.721735  -2807.717628    117.567758
VL65  -5200.836006 -30798.826379 -69613.662475 999999.999999
*  2024  2 19 18  8 30.00000000
PL65   1628.633723   5942.036123  -3014.954698    118.063502
VL65  -5944.502147 -32985.022071 -68531.610646 999999.999999
*  2024  2 19 18  9  0.00000000
PL65   1609.681242   5839.852167  -3218.831303    118.559089
VL65  -6690.847967 -35130.655354 -67373.572090 999999.999999
*  2024  2 19 18  9 30.00000000
PL65   1588.486963   5731.295130  -3419.121497    119.054659
VL65  -7438.865245 -37233.350990 -66140.902999 999999.999999
*  2024  2 19 18 10  0.00000000
PL65   1565.047398   5616.497318  -3615.603526    119.550144
VL65  -8187.535086 -39290.791581 -64835.042073 999999.999999
*  2024  2 19 18 10 30.00000000
PL65   1539.362128   5495.597895  -3808.060074    120.045600
VL65  -8935.829389 -41300.720223 -63457.508277 999999.999999
*  2024  2 19 18 11  0.00000000
PL65   1511.433833   5368.742705  -3996.278497    120.540989
VL65  -9682.712503 -43260.942934 -62009.898490 999999.999999
*  2024  2 19 18 11 30.00000000
PL65   1481.268306   5236.084074  -4180.051059    121.036085
VL65 -10427.142689 -45169.330866 -60493.885071 999999.999999
*  2024  2 19 18 12  0.00000000
PL65   1448.874476   5097.780618  -4359.175147    121.531407
VL65 -11168.073481 -47023.822407 -58911.213473 999999.999999
*  2024  2 19 18 12 30.00000000
PL65   1414.264414   4953.997031  -4533.453495    122.026740
VL65 -11904.455097 -48822.425126 -57263.699735 999999.999999
*  2024  2 19 18 13  0.00000000
PL65   1377.453346   4804.903880  -4702.694385    122.521967
VL65 -12635.235756 -50563.217440 -55553.227980 999999.999999
*  2024  2 19 18 13 30.00000000
PL65   1338.459653   4650.677389  -4866.711853    123.017258
VL65 -13359.362920 -52244.350190 -53781.748024 999999.999999
*  2024  2 19 18 14  0.00000000
PL65   1297.304874   4491.499217  -5025.325876    123.512551
VL65 -14075.784787 -53864.047971 -51951.272956 999999.999999
*  2024  2 19 18 14 30.00000000
PL65   1254.013699   4327.556239  -5178.362568    124.007653
VL65 -14783.452098 -55420.610346 -50063.877183 999999.999999
*  2024  2 19 18 15  0.00000000
PL65   1208.613961   4159.040316  -5325.654351    124.502514
VL65 -15481.319672 -56912.413845 -48121.694596 999999.999999
*  2024  2 19 18 15 30.00000000
PL65   1161.136621   3986.148061  -5467.040138    124.997487
VL65 -16168.347136 -58337.914231 -46126.916178 999999.999999
*  2024  2 19 18 16  0.00000000
PL65   1111.615753   3809.080599  -5602.365496    125.492655
VL65 -16843.500121 -59695.648770 -44081.787012 999999.999999
*  2024  2 19 18 16 30.00000000
PL65   1060.088521   3628.043317  -5731.482802    125.987920
VL65 -17505.752556 -60984.237637 -41988.601866 999999.999999
*  2024  2 19 18 17  0.00000000
PL65   1006.595155   3443.245619  -5854.251390    126.483137
VL65 -18154.088107 -62202.383447 -39849.701575 999999.999999
*  2024  2 19 18 17 30.00000000
PL65    951.178916   3254.900677  -5970.537681    126.978527
VL65 -18787.500629 -63348.871610 -37667.471553 999999.999999
*  2024  2 19 18 18  0.00000000
PL65    893.886069   3063.225180  -6080.215316    127.473964
VL65 -19404.995628 -64422.572008 -35444.339498 999999.999999
*  2024  2 19 18 18 30.00000000
PL65    834.765841   2868.439081  -6183.165281    127.969349
VL65 -20005.592216 -65422.439646 -33182.771886 999999.999999
*  2024  2 19 18 19  0.00000000
PL65    773.870381   2670.765338  -6279.276013    128.464781
VL65 -20588.324336 -66347.514363 -30885.270786 999999.999999
*  2024  2 19 18 19 30.00000000
PL65    711.254711   2470.429666  -6368.443507    128.960231
VL65 -21152.241604 -67196.920173 -28554.371698 999999.999999
*  2024  2 19 18 20  0.00000000
PL65    646.976680   2267.660280  -6450.571412    129.455622
VL65 -21696.410465 -67969.865726 -26192.642538 999999.999999
*  2024  2 19 18 20 30.00000000
PL65    581.096912   2062.687639  -6525.571129    129.951230
VL65 -22219.915466 -68665.646646 -23802.681825 999999.999999
*  2024  2 19 18 21  0.00000000
PL65    513.678748   1855.744183  -6593.361896    130.446821
VL65 -22721.860352 -69283.647599 -21387.114858 999999.999999
*  2024  2 19 18 21 30.00000000
PL65    444.788187   1647.064063  -6653.870859    130.942411
VL65 -23201.369386 -69823.342061 -18948.589093 999999.999999
*  2024  2 19 18 22  0.00000000
PL65    374.493822   1436.882880  -6707.033137    131.438000
VL65 -23657.588745 -70284.290152 -16489.770467 999999.999999
*  2024  2 19 18 22 30.00000000
PL65    302.866776   1225.437427  -6752.791872    131.933471
VL65 -24089.687448 -70666.136312 -14013.342602 999999.999999
*  2024  2 19 18 23  0.00000000
PL65    229.980626   1012.965437  -6791.098286    132.428959
VL65 -24496.858575 -70968.610215 -11522.008201 999999.999999
*  2024  2 19 18 23 30.00000000
PL65    155.911333    799.705322  -6821.911734    132.924453
VL65 -24878.321715 -71191.531096  -9018.486490 999999.999999
*  2024  2 19 18 24  0.00000000
PL65     80.737157    585.895897  -6845.199745    133.419894
VL65 -25233.324778 -71334.809113  -6505.505703 999999.999999
*  2024  2 19 18 24 30.00000000
PL65      4.538569    371.776115  -6860.938040    133.915402
VL65 -25561.144199 -71398.442489  -3985.797602 999999.999999
*  2024  2 19 18 25  0.00000000
PL65    -72.601829    157.584805  -6869.110536    134.410968
VL65 -25861.084870 -71382.514892  -1462.095029 999999.999999
*  2024  2 19 18 25 30.00000000
PL65   -150.599393    -56.439578  -6869.709349    134.906489
VL65 -26132.479337 -71287.193196   1062.869248 999999.999999
*  2024  2 19 18 26  0.00000000
PL65   -229.367518   -270.059206  -6862.734794    135.401979
VL65 -26374.688207 -71112.726806   3586.360755 999999.999999
*  2024  2 19 18 26 30.00000000
PL65   -308.817728   -483.037126  -6848.195393    135.897410
VL65 -26587.104093 -70859.450736   6105.643922 999999.999999
*  2024  2 19 18 27  0.00000000
PL65   -388.859776   -695.137520  -6826.107869    136.392833
VL65 -26769.154527 -70527.786652   8617.988596 999999.999999
*  2024  2 19 18 27 30.00000000
PL65   -469.401750   -906.125960  -6796.497120    136.888334
VL65 -26920.301502 -70118.239640  11120.674980 999999.999999
*  2024  2 19 18 28  0.00000000
PL65   -550.350176  -1115.769658  -6759.396186    137.383846
VL65 -27040.041098 -69631.396003  13610.994443 999999.999999
*  2024  2 19 18 28 30.00000000
PL65   -631.610119  -1323.837705  -6714.846217    137.879344
VL65 -27127.904150 -69067.923280  16086.250175 999999.999999
*  2024  2 19 18 29  0.00000000
PL65   -713.085290  -1530.101316  -6662.896433    138.374834
VL65 -27183.457360 -68428.570906  18543.758936 999999.999999
*  2024  2 19 18 29 30.00000000
PL65   -794.678157  -1734.334079  -6603.604078    138.870354
VL65 -27206.305156 -67714.170645  20980.854228 999999.999999
EOF
